OBJECT_NAME,OBJECT_ID,EPOCH,MEAN_MOTION,ECCENTRICITY,INCLINATION,RA_OF_ASC_NODE,ARG_OF_PERICENTER,MEAN_ANOMALY,EPHEMERIS_TYPE,CLASSIFICATION_TYPE,NORAD_CAT_ID,ELEMENT_SET_NO,REV_AT_EPOCH,BSTAR,MEAN_MOTION_DOT,MEAN_MOTION_DDOT
STARLINK-6094,2023-046AF,2026-06-17T02:39:24.342624,15.27573746,.0001141,43.0043,316.9209,257.7296,102.3428,0,U,56122,999,17727,-.5944486E-5,-.426E-5,0
STARLINK-6115,2023-046AH,2026-06-17T01:44:07.634976,15.27574700,.00012838,43.0018,306.2232,268.1347,91.9357,0,U,56123,999,17739,.27949113E-4,.507E-5,0
STARLINK-6126,2023-046AJ,2026-06-17T02:41:16.368864,15.27581130,.00020129,43.0047,305.6681,273.2632,86.7989,0,U,56124,999,17740,.238204E-4,.393E-5,0
STARLINK-6119,2023-046AK,2026-06-17T01:38:34.603584,15.27577245,.00013187,43.0052,306.1966,271.2308,88.8393,0,U,56125,999,17739,.18465625E-4,.246E-5,0
STARLINK-6124,2023-046AL,2026-06-16T02:50:26.210688,15.27571073,.00010093,43.0039,311.1130,278.2950,81.7788,0,U,56126,999,17725,-.16512225E-4,-.716E-5,0
STARLINK-6104,2023-046AM,2026-06-17T19:26:40.848864,15.27582052,.0001013,43.0019,304.8551,272.4929,87.5807,0,U,56127,999,17747,.31944385E-4,.617E-5,0
STARLINK-6122,2023-046AN,2026-06-16T16:08:05.509536,15.27574598,.00011024,43.0027,308.3827,268.4341,91.6385,0,U,56128,999,17733,.7598651E-5,-.53E-6,0
STARLINK-6121,2023-046AP,2026-06-16T22:55:50.098080,15.27584773,.00016155,43.0026,255.1599,273.8304,86.2363,0,U,56129,999,17797,.71182056E-4,.1697E-4,0
STARLINK-6117,2023-046AQ,2026-06-16T02:46:44.162688,15.27571482,.00005369,42.9961,311.0908,276.3186,83.7605,0,U,56130,999,17725,-.16974496E-4,-.729E-5,0
STARLINK-6120,2023-046AR,2026-06-17T19:45:53.400672,15.27577366,.0001782,43.0042,301.5388,277.6681,82.3968,0,U,56131,999,17751,.13544279E-4,.11E-5,0
STARLINK-6071,2023-046AS,2026-06-17T12:46:42.703680,15.27578404,.00011583,43.0039,302.8028,268.7202,91.3517,0,U,56132,999,17747,.20222232E-4,.294E-5,0
STARLINK-5566,2023-046AT,2026-06-17T01:55:01.028064,15.27579339,.00012967,43.0010,305.4210,270.4654,89.6049,0,U,56133,999,17740,-.1169266E-4,-.584E-5,0
STARLINK-5564,2023-046AU,2026-06-17T01:53:10.323744,15.27574624,.00008776,43.0033,305.4125,267.9905,92.0846,0,U,56134,999,17739,.1593461E-4,.176E-5,0
STARLINK-5489,2023-046AW,2026-06-17T02:02:25.405728,15.27565527,.0001046,43.0028,305.4614,270.6549,89.4183,0,U,56136,999,17740,.78348412E-4,.1894E-4,0
STARLINK-5090,2023-046AX,2026-06-16T02:43:02.093952,15.27570513,.0001298,43.0033,311.0631,272.1508,87.9195,0,U,56137,999,17725,.2270044E-5,-.2E-5,0
STARLINK-4774,2023-046AY,2026-06-16T15:45:52.381728,15.27583125,.00013441,43.0071,308.2606,255.0561,105.0142,0,U,56138,999,17733,.15057521E-4,.152E-5,0
STARLINK-5375,2023-046BA,2026-06-16T16:06:14.017248,15.27578558,.0001304,43.0061,308.3658,264.5983,95.4720,0,U,56140,999,17733,.22619442E-4,.36E-5,0
STARLINK-5377,2023-046BB,2026-06-17T19:36:38.705760,15.27577649,.00008935,43.0031,301.4910,267.0086,93.0664,0,U,56141,999,17751,.19681514E-4,.28E-5,0
STARLINK-5376,2023-046BC,2026-06-17T01:49:28.120224,15.27575970,.00011157,43.0026,305.3948,274.9934,85.0790,0,U,56142,999,17740,.19318181E-4,.27E-5,0
STARLINK-5016,2023-046BD,2026-06-17T02:32:40.897824,15.17161438,.00038211,42.9996,314.9942,291.4107,68.6333,0,U,56143,999,17729,.12815434E-2,.25773E-3,0
STARLINK-5374,2023-046BE,2026-06-16T16:44:52.864512,15.27582904,.00014684,43.0044,307.7080,270.3731,89.6952,0,U,56144,999,17734,-.44522698E-4,-.1487E-4,0
STARLINK-5111,2023-046BG,2026-06-18T06:41:17.345472,15.27576049,.00018376,43.0048,298.9362,279.0022,81.0622,0,U,56146,999,17758,.1233785E-5,-.228E-5,0
STARLINK-5140,2023-046BH,2026-06-16T14:00:01.000224,15.91986858,.00021938,43.0010,262.9280,290.9299,221.5531,0,U,56147,999,568,.34256692E-2,.1167522E-1,.61461241E-3
STARLINK-5089,2023-046BJ,2026-06-16T13:31:56.589888,15.27591557,.0001476,43.0018,271.9012,274.3235,85.7448,0,U,56148,999,17774,.6604E-4,.1556E-4,0
STARLINK-30107,2023-056B,2026-06-17T21:28:55.677504,15.27583590,.00034437,43.0080,345.2508,281.8419,78.2047,0,U,56287,999,17562,.97886192E-4,.2432E-4,0
STARLINK-30106,2023-056C,2026-06-17T22:46:49.141632,15.27576627,.00015048,43.0041,2.6942,267.9423,92.1256,0,U,56288,999,17537,.13850725E-4,.119E-5,0
STARLINK-30095,2023-056D,2026-06-16T19:04:09.445728,15.27576387,.00015893,42.9969,343.3436,267.4173,92.6497,0,U,56289,999,17549,.11630653E-4,.58E-6,0
STARLINK-30103,2023-056E,2026-06-17T21:18:12.286080,15.27583772,.00013656,43.0031,3.0829,275.1197,84.9499,0,U,56290,999,17536,.25200511E-4,.431E-5,0
STARLINK-30113,2023-056F,2026-06-17T21:07:06.386592,15.27578830,.00016021,43.0041,3.0247,266.4328,93.6341,0,U,56291,999,17536,.287093E-4,.528E-5,0
STARLINK-30098,2023-056G,2026-06-17T22:57:55.447200,15.27575099,.00015433,43.0016,2.7288,268.0162,92.0513,0,U,56292,999,17537,.17259288E-4,.213E-5,0
