STARLINK-6094           
1 56122U 23046AF  26168.11069841 -.00000426  00000+0 -59445-5 0  9999
2 56122  43.0043 316.9209 0001141 257.7296 102.3428 15.27573746177278
STARLINK-6115           
1 56123U 23046AH  26168.07231059  .00000507  00000+0  27949-4 0  9998
2 56123  43.0018 306.2232 0001283 268.1347  91.9357 15.27574700177397
STARLINK-6126           
1 56124U 23046AJ  26168.11199501  .00000393  00000+0  23820-4 0  9996
2 56124  43.0047 305.6681 0002012 273.2632  86.7989 15.27581130177406
STARLINK-6119           
1 56125U 23046AK  26168.06845606  .00000246  00000+0  18466-4 0  9992
2 56125  43.0052 306.1966 0001318 271.2308  88.8393 15.27577245177393
STARLINK-6124           
1 56126U 23046AL  26167.11835892 -.00000716  00000+0 -16512-4 0  9998
2 56126  43.0039 311.1130 0001009 278.2950  81.7788 15.27571073177253
STARLINK-6104           
1 56127U 23046AM  26168.81019501  .00000617  00000+0  31944-4 0  9992
2 56127  43.0019 304.8551 0001013 272.4929  87.5807 15.27582052177474
STARLINK-6122           
1 56128U 23046AN  26167.67228599 -.00000053  00000+0  75987-5 0  9996
2 56128  43.0027 308.3827 0001102 268.4341  91.6385 15.27574598177339
STARLINK-6121           
1 56129U 23046AP  26167.95544095  .00001697  00000+0  71182-4 0  9996
2 56129  43.0026 255.1599 0001615 273.8304  86.2363 15.27584773177974
STARLINK-6117           
1 56130U 23046AQ  26167.11578892 -.00000729  00000+0 -16974-4 0  9993
2 56130  42.9961 311.0908 0000536 276.3186  83.7605 15.27571482177250
STARLINK-6120           
1 56131U 23046AR  26168.82353473  .00000110  00000+0  13544-4 0  9991
2 56131  43.0042 301.5388 0001782 277.6681  82.3968 15.27577366177510
STARLINK-6071           
1 56132U 23046AS  26168.53243870  .00000294  00000+0  20222-4 0  9993
2 56132  43.0039 302.8028 0001158 268.7202  91.3517 15.27578404177478
STARLINK-5566           
1 56133U 23046AT  26168.07987301 -.00000584  00000+0 -11693-4 0  9993
2 56133  43.0010 305.4210 0001296 270.4654  89.6049 15.27579339177405
STARLINK-5564           
1 56134U 23046AU  26168.07859171  .00000176  00000+0  15935-4 0  9995
2 56134  43.0033 305.4125 0000877 267.9905  92.0846 15.27574624177393
STARLINK-5489           
1 56136U 23046AW  26168.08501627  .00001894  00000+0  78348-4 0  9993
2 56136  43.0028 305.4614 0001046 270.6549  89.4183 15.27565527177404
STARLINK-5090           
1 56137U 23046AX  26167.11321868 -.00000200  00000+0  22700-5 0  9997
2 56137  43.0033 311.0631 0001298 272.1508  87.9195 15.27570513177254
STARLINK-4774           
1 56138U 23046AY  26167.65685627  .00000152  00000+0  15058-4 0  9995
2 56138  43.0071 308.2606 0001344 255.0561 105.0142 15.27583125177334
STARLINK-5375           
1 56140U 23046BA  26167.67099557  .00000360  00000+0  22619-4 0  9993
2 56140  43.0061 308.3658 0001304 264.5983  95.4720 15.27578558177331
STARLINK-5377           
1 56141U 23046BB  26168.81711465  .00000280  00000+0  19682-4 0  9997
2 56141  43.0031 301.4910 0000893 267.0086  93.0664 15.27577649177519
STARLINK-5376           
1 56142U 23046BC  26168.07601991  .00000270  00000+0  19318-4 0  9993
2 56142  43.0026 305.3948 0001115 274.9934  85.0790 15.27575970177409
STARLINK-5016           
1 56143U 23046BD  26168.10602891  .00025773  00000+0  12815-2 0  9996
2 56143  42.9996 314.9942 0003821 291.4107  68.6333 15.17161438177292
STARLINK-5374           
1 56144U 23046BE  26167.69783408 -.00001487  00000+0 -44523-4 0  9995
2 56144  43.0044 307.7080 0001468 270.3731  89.6952 15.27582904177348
STARLINK-5111           
1 56146U 23046BG  26169.27867298 -.00000228  00000+0  12338-5 0  9994
2 56146  43.0048 298.9362 0001837 279.0022  81.0622 15.27576049177586
STARLINK-5140           
1 56147U 23046BH  26167.58334491  .01167522  61461-3  34257-2 0  9995
2 56147  43.0010 262.9280 0002193 290.9299 221.5531 15.91986858  5685
STARLINK-5089           
1 56148U 23046BJ  26167.56384942  .00001556  00000+0  66040-4 0  9998
2 56148  43.0018 271.9012 0001476 274.3235  85.7448 15.27591557177747
STARLINK-30107          
1 56287U 23056B   26168.89508886  .00002432  00000+0  97886-4 0  9991
2 56287  43.0080 345.2508 0003443 281.8419  78.2047 15.27583590175623
STARLINK-30106          
1 56288U 23056C   26168.94917988  .00000119  00000+0  13851-4 0  9995
2 56288  43.0041   2.6942 0001504 267.9423  92.1256 15.27576627175375
STARLINK-30095          
1 56289U 23056D   26167.79455377  .00000058  00000+0  11631-4 0  9993
2 56289  42.9969 343.3436 0001589 267.4173  92.6497 15.27576387175494
STARLINK-30103          
1 56290U 23056E   26168.88764220  .00000431  00000+0  25201-4 0  9999
2 56290  43.0031   3.0829 0001365 275.1197  84.9499 15.27583772175366
STARLINK-30113          
1 56291U 23056F   26168.87993503  .00000528  00000+0  28709-4 0  9990
2 56291  43.0041   3.0247 0001602 266.4328  93.6341 15.27578830175367
STARLINK-30098          
1 56292U 23056G   26168.95689175  .00000213  00000+0  17259-4 0  9996
2 56292  43.0016   2.7288 0001543 268.0162  92.0513 15.27575099175378
